{"type": "FeatureCollection", "features": [ {"type": "Feature", "properties": {"norad_id": 31901, "name": "FENGYUN 1C DEB", "group": "fengyun-1c-debris", "lat": 24.934507256096122, "lon": -41.975295511855215, "alt_km": 963.5285234310159, "timestamp": "2025-12-27T22:26:48.887726+00:00", "meta": {"OBJECT_NAME": "FENGYUN 1C DEB", "OBJECT_ID": "1999-025CLC", "EPOCH": "2025-12-24T15:05:28.271616", "MEAN_MOTION": 13.94148421, "ECCENTRICITY": 0.01318445, "INCLINATION": 98.6028, "RA_OF_ASC_NODE": 318.9801, "ARG_OF_PERICENTER": 156.6083, "MEAN_ANOMALY": 204.1152, "EPHEMERIS_TYPE": 0, "CLASSIFICATION_TYPE": "U", "NORAD_CAT_ID": 31901, "ELEMENT_SET_NO": 999, "REV_AT_EPOCH": 63573, "BSTAR": 0.00015032939, "MEAN_MOTION_DOT": 1.75e-06, "MEAN_MOTION_DDOT": 0}, "tle": {"line1": "1 31901U 99025CLC 25358.62879944  .00000175  00000+0  15033-3 0  9998", "line2": "2 31901  98.6028 318.9801 0131844 156.6083 204.1152 13.94148421635735"}}, "geometry": {"type": "Point", "coordinates": [-41.975295511855215, 24.934507256096122]}}, {"type": "Feature", "properties": {"norad_id": 31902, "name": "FENGYUN 1C DEB", "group": "fengyun-1c-debris", "lat": -30.383299318100814, "lon": 156.27881691004566, "alt_km": 853.1492815410247, "timestamp": "2025-12-27T22:26:48.887736+00:00", "meta": {"OBJECT_NAME": "FENGYUN 1C DEB", "OBJECT_ID": "1999-025CLD", "EPOCH": "2025-12-23T10:12:05.114880", "MEAN_MOTION": 14.23289586, "ECCENTRICITY": 0.01812156, "INCLINATION": 98.5083, "RA_OF_ASC_NODE": 336.9513, "ARG_OF_PERICENTER": 118.1318, "MEAN_ANOMALY": 33.9215, "EPHEMERIS_TYPE": 0, "CLASSIFICATION_TYPE": "U", "NORAD_CAT_ID": 31902, "ELEMENT_SET_NO": 999, "REV_AT_EPOCH": 64943, "BSTAR": 0.00018583997, "MEAN_MOTION_DOT": 4.56e-06, "MEAN_MOTION_DDOT": 0}, "tle": {"line1": "1 31902U 99025CLD 25357.42505920  .00000456  00000+0  18584-3 0  9992", "line2": "2 31902  98.5083 336.9513 0181215 118.1318  33.9215 14.23289586649438"}}, "geometry": {"type": "Point", "coordinates": [156.27881691004566, -30.383299318100814]}}, {"type": "Feature", "properties": {"norad_id": 31903, "name": "FENGYUN 1C DEB", "group": "fengyun-1c-debris", "lat": -64.99170930209763, "lon": 12.669939779138032, "alt_km": 647.4763644712402, "timestamp": "2025-12-27T22:26:48.887746+00:00", "meta": {"OBJECT_NAME": "FENGYUN 1C DEB", "OBJECT_ID": "1999-025CLE", "EPOCH": "2025-12-26T10:34:31.744416", "MEAN_MOTION": 14.60607026, "ECCENTRICITY": 0.0129168, "INCLINATION": 99.2755, "RA_OF_ASC_NODE": 350.4897, "ARG_OF_PERICENTER": 354.6599, "MEAN_ANOMALY": 5.3212, "EPHEMERIS_TYPE": 0, "CLASSIFICATION_TYPE": "U", "NORAD_CAT_ID": 31903, "ELEMENT_SET_NO": 999, "REV_AT_EPOCH": 97595, "BSTAR": 0.00089903, "MEAN_MOTION_DOT": 4.855e-05, "MEAN_MOTION_DDOT": 0}, "tle": {"line1": "1 31903U 99025CLE 25360.44064519  .00004855  00000+0  89903-3 0  9993", "line2": "2 31903  99.2755 350.4897 0129168 354.6599   5.3212 14.60607026975959"}}, "geometry": {"type": "Point", "coordinates": [12.669939779138032, -64.99170930209763]}}, {"type": "Feature", "properties": {"norad_id": 31905, "name": "FENGYUN 1C DEB", "group": "fengyun-1c-debris", "lat": -29.675293540132675, "lon": -15.688093613002811, "alt_km": 759.825862223749, "timestamp": "2025-12-27T22:26:48.887756+00:00", "meta": {"OBJECT_NAME": "FENGYUN 1C DEB", "OBJECT_ID": "1999-025CLG", "EPOCH": "2025-12-26T09:43:22.024128", "MEAN_MOTION": 14.33157016, "ECCENTRICITY": 0.0196755, "INCLINATION": 99.1517, "RA_OF_ASC_NODE": 337.4243, "ARG_OF_PERICENTER": 54.4234, "MEAN_ANOMALY": 307.511, "EPHEMERIS_TYPE": 0, "CLASSIFICATION_TYPE": "U", "NORAD_CAT_ID": 31905, "ELEMENT_SET_NO": 999, "REV_AT_EPOCH": 96820, "BSTAR": 0.00071523, "MEAN_MOTION_DOT": 2.383e-05, "MEAN_MOTION_DDOT": 0}, "tle": {"line1": "1 31905U 99025CLG 25360.40511602  .00002383  00000+0  71523-3 0  9994", "line2": "2 31905  99.1517 337.4243 0196755  54.4234 307.5110 14.33157016968206"}}, "geometry": {"type": "Point", "coordinates": [-15.688093613002811, -29.675293540132675]}}, {"type": "Feature", "properties": {"norad_id": 31906, "name": "FENGYUN 1C DEB", "group": "fengyun-1c-debris", "lat": -40.9876431849596, "lon": -52.737108471410124, "alt_km": 843.5777336038409, "timestamp": "2025-12-27T22:26:48.887766+00:00", "meta": {"OBJECT_NAME": "FENGYUN 1C DEB", "OBJECT_ID": "1999-025CLH", "EPOCH": "2025-12-27T08:11:19.216032", "MEAN_MOTION": 14.2479404, "ECCENTRICITY": 0.0049614, "INCLINATION": 98.6916, "RA_OF_ASC_NODE": 134.313, "ARG_OF_PERICENTER": 81.5506, "MEAN_ANOMALY": 334.0307, "EPHEMERIS_TYPE": 0, "CLASSIFICATION_TYPE": "U", "NORAD_CAT_ID": 31906, "ELEMENT_SET_NO": 999, "REV_AT_EPOCH": 95337, "BSTAR": 0.0024144, "MEAN_MOTION_DOT": 5.661e-05, "MEAN_MOTION_DDOT": 0}, "tle": {"line1": "1 31906U 99025CLH 25361.34119463  .00005661  00000+0  24144-2 0  9996", "line2": "2 31906  98.6916 134.3130 0049614  81.5506 334.0307 14.24794040953376"}}, "geometry": {"type": "Point", "coordinates": [-52.737108471410124, -40.9876431849596]}}, {"type": "Feature", "properties": {"norad_id": 31910, "name": "FENGYUN 1C DEB", "group": "fengyun-1c-debris", "lat": -80.36051532448985, "lon": 149.28681236630408, "alt_km": 887.5236393454843, "timestamp": "2025-12-27T22:26:48.887776+00:00", "meta": {"OBJECT_NAME": "FENGYUN 1C DEB", "OBJECT_ID": "1999-025CLM", "EPOCH": "2025-12-27T07:58:37.072128", "MEAN_MOTION": 14.47742469, "ECCENTRICITY": 0.02282, "INCLINATION": 97.6658, "RA_OF_ASC_NODE": 21.2049, "ARG_OF_PERICENTER": 110.4157, "MEAN_ANOMALY": 252.1704, "EPHEMERIS_TYPE": 0, "CLASSIFICATION_TYPE": "U", "NORAD_CAT_ID": 31910, "ELEMENT_SET_NO": 999, "REV_AT_EPOCH": 64580, "BSTAR": 0.0007086, "MEAN_MOTION_DOT": 3.593e-05, "MEAN_MOTION_DDOT": 0}, "tle": {"line1": "1 31910U 99025CLM 25361.33237352  .00003593  00000+0  70860-3 0  9997", "line2": "2 31910  97.6658  21.2049 0228200 110.4157 252.1704 14.47742469645800"}}, "geometry": {"type": "Point", "coordinates": [149.28681236630408, -80.36051532448985]}}, {"type": "Feature", "properties": {"norad_id": 31913, "name": "FENGYUN 1C DEB", "group": "fengyun-1c-debris", "lat": -19.524524491301253, "lon": 99.61657068972157, "alt_km": 882.8389210561309, "timestamp": "2025-12-27T22:26:48.887786+00:00", "meta": {"OBJECT_NAME": "FENGYUN 1C DEB", "OBJECT_ID": "1999-025CLQ", "EPOCH": "2025-12-25T12:31:08.673024", "MEAN_MOTION": 13.9142581, "ECCENTRICITY": 0.0201911, "INCLINATION": 99.2939, "RA_OF_ASC_NODE": 280.5274, "ARG_OF_PERICENTER": 279.2611, "MEAN_ANOMALY": 78.5764, "EPHEMERIS_TYPE": 0, "CLASSIFICATION_TYPE": "U", "NORAD_CAT_ID": 31913, "ELEMENT_SET_NO": 999, "REV_AT_EPOCH": 56064, "BSTAR": 0.0071027, "MEAN_MOTION_DOT": 0.00010564, "MEAN_MOTION_DDOT": 0}, "tle": {"line1": "1 31913U 99025CLQ 25359.52162816  .00010564  00000+0  71027-2 0  9991", "line2": "2 31913  99.2939 280.5274 0201911 279.2611  78.5764 13.91425810560642"}}, "geometry": {"type": "Point", "coordinates": [99.61657068972157, -19.524524491301253]}}, {"type": "Feature", "properties": {"norad_id": 31914, "name": "FENGYUN 1C DEB", "group": "fengyun-1c-debris", "lat": -78.65819989064391, "lon": -81.38227567334302, "alt_km": 748.8996221071147, "timestamp": "2025-12-27T22:26:48.887796+00:00", "meta": {"OBJECT_NAME": "FENGYUN 1C DEB", "OBJECT_ID": "1999-025CLR", "EPOCH": "2025-12-24T13:59:36.613824", "MEAN_MOTION": 14.55730116, "ECCENTRICITY": 0.01827188, "INCLINATION": 99.0256, "RA_OF_ASC_NODE": 222.5796, "ARG_OF_PERICENTER": 33.5539, "MEAN_ANOMALY": 327.7073, "EPHEMERIS_TYPE": 0, "CLASSIFICATION_TYPE": "U", "NORAD_CAT_ID": 31914, "ELEMENT_SET_NO": 999, "REV_AT_EPOCH": 68645, "BSTAR": 0.00015271325, "MEAN_MOTION_DOT": 7.72e-06, "MEAN_MOTION_DDOT": 0}, "tle": {"line1": "1 31914U 99025CLR 25358.58306266  .00000772  00000+0  15271-3 0  9996", "line2": "2 31914  99.0256 222.5796 0182718  33.5539 327.7073 14.55730116686450"}}, "geometry": {"type": "Point", "coordinates": [-81.38227567334302, -78.65819989064391]}}, {"type": "Feature", "properties": {"norad_id": 31915, "name": "FENGYUN 1C DEB", "group": "fengyun-1c-debris", "lat": 48.43456530710413, "lon": -150.84168715615706, "alt_km": 839.8796369297552, "timestamp": "2025-12-27T22:26:48.887806+00:00", "meta": {"OBJECT_NAME": "FENGYUN 1C DEB", "OBJECT_ID": "1999-025CLS", "EPOCH": "2025-12-25T00:18:12.663648", "MEAN_MOTION": 14.16249035, "ECCENTRICITY": 0.01012958, "INCLINATION": 98.6305, "RA_OF_ASC_NODE": 16.4635, "ARG_OF_PERICENTER": 234.6009, "MEAN_ANOMALY": 124.5672, "EPHEMERIS_TYPE": 0, "CLASSIFICATION_TYPE": "U", "NORAD_CAT_ID": 31915, "ELEMENT_SET_NO": 999, "REV_AT_EPOCH": 64281, "BSTAR": 0.00072723702, "MEAN_MOTION_DOT": 1.472e-05, "MEAN_MOTION_DDOT": 0}, "tle": {"line1": "1 31915U 99025CLS 25359.01264657  .00001472  00000+0  72724-3 0  9997", "line2": "2 31915  98.6305  16.4635 0101295 234.6009 124.5672 14.16249035642812"}}, "geometry": {"type": "Point", "coordinates": [-150.84168715615706, 48.43456530710413]}}, {"type": "Feature", "properties": {"norad_id": 31916, "name": "FENGYUN 1C DEB", "group": "fengyun-1c-debris", "lat": 31.91315055550214, "lon": -85.84672045847402, "alt_km": 788.3069336341177, "timestamp": "2025-12-27T22:26:48.887816+00:00", "meta": {"OBJECT_NAME": "FENGYUN 1C DEB", "OBJECT_ID": "1999-025CLT", "EPOCH": "2025-12-27T11:43:02.855136", "MEAN_MOTION": 14.32619181, "ECCENTRICITY": 0.0145377, "INCLINATION": 99.3287, "RA_OF_ASC_NODE": 87.7968, "ARG_OF_PERICENTER": 53.9905, "MEAN_ANOMALY": 307.4652, "EPHEMERIS_TYPE": 0, "CLASSIFICATION_TYPE": "U", "NORAD_CAT_ID": 31916, "ELEMENT_SET_NO": 999, "REV_AT_EPOCH": 64738, "BSTAR": 0.0012224, "MEAN_MOTION_DOT": 3.683e-05, "MEAN_MOTION_DDOT": 0}, "tle": {"line1": "1 31916U 99025CLT 25361.48822749  .00003683  00000+0  12224-2 0  9998", "line2": "2 31916  99.3287  87.7968 0145377  53.9905 307.4652 14.32619181647384"}}, "geometry": {"type": "Point", "coordinates": [-85.84672045847402, 31.91315055550214]}}]}